1 28378U 04027A   18272.62072812 -.00000057 +00000-0 +00000-0 0  9992
2 28378 000.0189 143.6544 0000636 099.1609 237.9214 01.00273100013044
